{
 "type": "FeatureCollection",
 "features": [
  {
   "type": "Feature",
   "geometry": {
    "type": "LineString",
    "coordinates": [
     [
      120.6491511,
      16.3235585
     ],
     [
      120.6489703,
      16.323481
     ],
     [
      120.6489354,
      16.3233999
     ],
     [
      120.6488885,
      16.3232699
     ],
     [
      120.6488898,
      16.3232171
     ],
     [
      120.6489368,
      16.3231373
     ],
     [
      120.6489475,
      16.3230987
     ],
     [
      120.6489448,
      16.3230537
     ],
     [
      120.6489193,
      16.3230176
     ],
     [
      120.6487812,
      16.3228658
     ],
     [
      120.6487343,
      16.322831
     ],
     [
      120.6486833,
      16.3228117
     ],
     [
      120.6485519,
      16.3227782
     ],
     [
      120.6485197,
      16.3227808
     ],
     [
      120.6485077,
      16.3226821
     ],
     [
      120.6485026,
      16.3226001
     ],
     [
      120.6485249,
      16.3225026
     ],
     [
      120.6485473,
      16.3224548
     ],
     [
      120.6485219,
      16.322409
     ],
     [
      120.6484843,
      16.3223817
     ],
     [
      120.648464,
      16.3223368
     ],
     [
      120.648465,
      16.322289
     ],
     [
      120.6484782,
      16.3222344
     ],
     [
      120.6484823,
      16.3221895
     ],
     [
      120.6484314,
      16.3220998
     ],
     [
      120.6483959,
      16.3220578
     ],
     [
      120.6483532,
      16.3220334
     ],
     [
      120.648277,
      16.3219583
     ],
     [
      120.6482058,
      16.3218959
     ],
     [
      120.648205,
      16.3218144
     ],
     [
      120.6482421,
      16.3217512
     ],
     [
      120.648281,
      16.3216701
     ],
     [
      120.6482997,
      16.3216173
     ],
     [
      120.6483418,
      16.3215759
     ],
     [
      120.6484097,
      16.3215581
     ],
     [
      120.648496,
      16.3215179
     ],
     [
      120.6485814,
      16.3214847
     ],
     [
      120.6486498,
      16.3214371
     ],
     [
      120.6487079,
      16.3213777
     ],
     [
      120.6487369,
      16.3213342
     ],
     [
      120.6487396,
      16.321275
     ],
     [
      120.6487718,
      16.3212042
     ],
     [
      120.6487866,
      16.3211488
     ],
     [
      120.6487946,
      16.3210896
     ],
     [
      120.6488,
      16.3210034
     ],
     [
      120.6488147,
      16.3209416
     ],
     [
      120.6488469,
      16.3208863
     ],
     [
      120.6488778,
      16.3208464
     ],
     [
      120.6488912,
      16.3208039
     ],
     [
      120.6488912,
      16.320746
     ],
     [
      120.6488831,
      16.3206726
     ],
     [
      120.6488979,
      16.320549
     ],
     [
      120.6488938,
      16.3204422
     ],
     [
      120.6489265,
      16.3203261
     ],
     [
      120.6489649,
      16.3202595
     ],
     [
      120.6489958,
      16.3201552
     ],
     [
      120.6489864,
      16.320105
     ],
     [
      120.6489555,
      16.3200522
     ],
     [
      120.6489502,
      16.3199905
     ],
     [
      120.648977,
      16.3199377
     ],
     [
      120.6490722,
      16.3198643
     ],
     [
      120.6491044,
      16.3198257
     ],
     [
      120.6491245,
      16.3197112
     ],
     [
      120.6491111,
      16.319594
     ],
     [
      120.6491156,
      16.3195243
     ],
     [
      120.6491299,
      16.3194795
     ],
     [
      120.6491178,
      16.3194216
     ],
     [
      120.6491259,
      16.3193585
     ],
     [
      120.6490794,
      16.3191999
     ],
     [
      120.6490575,
      16.3191539
     ],
     [
      120.6490534,
      16.3190715
     ],
     [
      120.6490311,
      16.3189309
     ],
     [
      120.6490061,
      16.3189147
     ],
     [
      120.6490033,
      16.3187679
     ],
     [
      120.6490587,
      16.318691
     ],
     [
      120.6490387,
      16.3184408
     ],
     [
      120.6490172,
      16.3183932
     ],
     [
      120.6490105,
      16.318334
     ],
     [
      120.6489797,
      16.3182838
     ],
     [
      120.6490078,
      16.3181152
     ],
     [
      120.6490011,
      16.3179865
     ],
     [
      120.6490186,
      16.3179311
     ],
     [
      120.6489895,
      16.3178215
     ],
     [
      120.6490025,
      16.3177625
     ],
     [
      120.6489998,
      16.3176403
     ],
     [
      120.6490105,
      16.3175823
     ],
     [
      120.6489944,
      16.3174742
     ],
     [
      120.6489649,
      16.3173404
     ],
     [
      120.6489506,
      16.3172976
     ],
     [
      120.648952,
      16.3172334
     ],
     [
      120.6489582,
      16.3169504
     ],
     [
      120.6489153,
      16.3168384
     ],
     [
      120.6488871,
      16.3167972
     ],
     [
      120.6488603,
      16.3167264
     ],
     [
      120.6488496,
      16.3166788
     ],
     [
      120.6488147,
      16.3166183
     ],
     [
      120.6488094,
      16.3165707
     ],
     [
      120.6488187,
      16.3165231
     ],
     [
      120.6488134,
      16.316451
     ],
     [
      120.648745,
      16.3162914
     ],
     [
      120.6487034,
      16.3162373
     ],
     [
      120.6486806,
      16.3161923
     ],
     [
      120.6486377,
      16.3160842
     ],
     [
      120.6486283,
      16.3159799
     ],
     [
      120.6486551,
      16.3157289
     ],
     [
      120.6486234,
      16.3156772
     ],
     [
      120.6486431,
      16.3155024
     ],
     [
      120.6485787,
      16.3153235
     ],
     [
      120.6485143,
      16.3152192
     ],
     [
      120.648513,
      16.3151575
     ],
     [
      120.6484942,
      16.3151021
     ],
     [
      120.6485492,
      16.3150004
     ],
     [
      120.6485733,
      16.3149142
     ],
     [
      120.6485706,
      16.3148846
     ],
     [
      120.6484231,
      16.3148202
     ],
     [
      120.6482828,
      16.3146938
     ],
     [
      120.6481857,
      16.3146246
     ],
     [
      120.6480946,
      16.31455
     ],
     [
      120.647998,
      16.3144637
     ],
     [
      120.6479698,
      16.3144071
     ],
     [
      120.6479484,
      16.3143517
     ],
     [
      120.6479028,
      16.3140892
     ],
     [
      120.647884,
      16.313936
     ],
     [
      120.6478599,
      16.3138961
     ],
     [
      120.6478424,
      16.3137738
     ],
     [
      120.6478089,
      16.3137095
     ],
     [
      120.6477915,
      16.3136657
     ],
     [
      120.6478013,
      16.3135792
     ],
     [
      120.647821,
      16.3134971
     ],
     [
      120.6478679,
      16.313434
     ],
     [
      120.6479537,
      16.3133903
     ],
     [
      120.6480221,
      16.3133182
     ],
     [
      120.6480883,
      16.3132562
     ],
     [
      120.6481817,
      16.3132204
     ],
     [
      120.6482662,
      16.3131946
     ],
     [
      120.6483038,
      16.3131586
     ],
     [
      120.6483561,
      16.3130402
     ],
     [
      120.6483561,
      16.3129874
     ],
     [
      120.6483413,
      16.3128677
     ],
     [
      120.6483239,
      16.3127969
     ],
     [
      120.6482474,
      16.3126643
     ],
     [
      120.6481925,
      16.3125446
     ],
     [
      120.6480977,
      16.3123114
     ],
     [
      120.6480946,
      16.3122628
     ],
     [
      120.6481004,
      16.3121724
     ],
     [
      120.6481173,
      16.3120941
     ],
     [
      120.6481442,
      16.3120311
     ],
     [
      120.6482032,
      16.3119281
     ],
     [
      120.6482568,
      16.3118547
     ],
     [
      120.6483109,
      16.3118069
     ],
     [
      120.6483534,
      16.3117543
     ],
     [
      120.6485063,
      16.3116694
     ],
     [
      120.6484982,
      16.3115703
     ],
     [
      120.6484687,
      16.3114969
     ],
     [
      120.6484178,
      16.3112176
     ],
     [
      120.648348,
      16.3109859
     ],
     [
      120.6483042,
      16.3108943
     ],
     [
      120.6483024,
      16.31078
     ],
     [
      120.6483386,
      16.3106886
     ],
     [
      120.6483775,
      16.3105432
     ],
     [
      120.6483856,
      16.3104865
     ],
     [
      120.6484097,
      16.3104132
     ],
     [
      120.6484204,
      16.3103565
     ],
     [
      120.6484218,
      16.3103282
     ],
     [
      120.6483923,
      16.3102291
     ],
     [
      120.6483512,
      16.3101786
     ],
     [
      120.6483078,
      16.3100141
     ],
     [
      120.6483118,
      16.3098468
     ],
     [
      120.6483279,
      16.3097735
     ],
     [
      120.6483292,
      16.3097194
     ],
     [
      120.6483105,
      16.3096743
     ],
     [
      120.6482917,
      16.3095418
     ],
     [
      120.648289,
      16.3094877
     ],
     [
      120.648264,
      16.3093819
     ],
     [
      120.6480852,
      16.3092007
     ],
     [
      120.6480557,
      16.3090964
     ],
     [
      120.6479604,
      16.3089716
     ],
     [
      120.6479135,
      16.3089008
     ],
     [
      120.6478692,
      16.3087811
     ],
     [
      120.6478706,
      16.3087154
     ],
     [
      120.647855,
      16.3086791
     ],
     [
      120.647833,
      16.3086073
     ],
     [
      120.6477848,
      16.3085455
     ],
     [
      120.64777,
      16.3085159
     ],
     [
      120.6477271,
      16.3084876
     ],
     [
      120.6476386,
      16.3084516
     ],
     [
      120.6475715,
      16.3084142
     ],
     [
      120.6474978,
      16.308355
     ],
     [
      120.6474615,
      16.3083035
     ],
     [
      120.647432,
      16.3082263
     ],
     [
      120.6474213,
      16.3081555
     ],
     [
      120.6473717,
      16.3080268
     ],
     [
      120.6473516,
      16.3079856
     ],
     [
      120.6473422,
      16.3078878
     ],
     [
      120.6473288,
      16.3078273
     ],
     [
      120.6473194,
      16.3077604
     ],
     [
      120.6473194,
      16.3076934
     ],
     [
      120.6473382,
      16.3076136
     ],
     [
      120.6473797,
      16.3075248
     ],
     [
      120.6474428,
      16.3074257
     ],
     [
      120.6474615,
      16.307333
     ],
     [
      120.6474897,
      16.3072803
     ],
     [
      120.6475045,
      16.3072185
     ],
     [
      120.6475662,
      16.3070962
     ],
     [
      120.6475702,
      16.3070434
     ],
     [
      120.6476278,
      16.3068735
     ],
     [
      120.6476922,
      16.3067165
     ],
     [
      120.6476659,
      16.3065708
     ],
     [
      120.6476225,
      16.3063818
     ],
     [
      120.647546,
      16.3061656
     ],
     [
      120.6475608,
      16.3059403
     ],
     [
      120.6473601,
      16.3057238
     ],
     [
      120.6473346,
      16.3056131
     ],
     [
      120.6473315,
      16.3055027
     ],
     [
      120.6473073,
      16.3054396
     ],
     [
      120.6472362,
      16.3053135
     ],
     [
      120.6471884,
      16.3052823
     ],
     [
      120.6471294,
      16.3052926
     ],
     [
      120.6469926,
      16.305263
     ],
     [
      120.6469184,
      16.305262
     ],
     [
      120.6468245,
      16.3052736
     ],
     [
      120.6467521,
      16.3052478
     ],
     [
      120.6466421,
      16.305186
     ],
     [
      120.6466019,
      16.3051577
     ],
     [
      120.6465335,
      16.3051552
     ],
     [
      120.6464933,
      16.3051667
     ],
     [
      120.6464195,
      16.3051706
     ],
     [
      120.6463753,
      16.3051963
     ],
     [
      120.6463149,
      16.3051938
     ],
     [
      120.6462385,
      16.3051616
     ],
     [
      120.6461486,
      16.3051423
     ],
     [
      120.6459917,
      16.3050895
     ],
     [
      120.6459394,
      16.3050625
     ],
     [
      120.6458379,
      16.3050429
     ],
     [
      120.6457972,
      16.3049312
     ],
     [
      120.6457691,
      16.3048823
     ],
     [
      120.6457208,
      16.3048424
     ],
     [
      120.6456309,
      16.3048179
     ],
     [
      120.6455625,
      16.304787
     ],
     [
      120.6454638,
      16.3046902
     ],
     [
      120.6453578,
      16.304631
     ],
     [
      120.6453355,
      16.3046011
     ],
     [
      120.6452286,
      16.3044614
     ],
     [
      120.645183,
      16.3043867
     ],
     [
      120.6451133,
      16.3043005
     ],
     [
      120.6450489,
      16.3042516
     ],
     [
      120.6450046,
      16.3041911
     ],
     [
      120.6449604,
      16.3041576
     ],
     [
      120.6448911,
      16.3041226
     ],
     [
      120.6447995,
      16.3040559
     ],
     [
      120.6446251,
      16.3039066
     ],
     [
      120.6445009,
      16.3037931
     ],
     [
      120.6444083,
      16.3036824
     ],
     [
      120.6443515,
      16.3036389
     ],
     [
      120.6442711,
      16.3035526
     ],
     [
      120.6442027,
      16.3035076
     ],
     [
      120.6440958,
      16.3034713
     ],
     [
      120.6440462,
      16.3034442
     ],
     [
      120.6439653,
      16.3033608
     ],
     [
      120.6438714,
      16.3032965
     ],
     [
      120.6437565,
      16.3031984
     ],
     [
      120.6436729,
      16.3031523
     ],
     [
      120.6435563,
      16.3030674
     ],
     [
      120.6435187,
      16.30303
     ],
     [
      120.6433377,
      16.3029155
     ],
     [
      120.6432773,
      16.3028807
     ],
     [
      120.6432049,
      16.3028537
     ],
     [
      120.6431097,
      16.3028061
     ],
     [
      120.6430466,
      16.3027636
     ],
     [
      120.6429997,
      16.3027198
     ],
     [
      120.6428937,
      16.30264
     ],
     [
      120.6428213,
      16.3026066
     ],
     [
      120.6426912,
      16.302528
     ],
     [
      120.6425571,
      16.3024868
     ],
     [
      120.6425066,
      16.3024145
     ],
     [
      120.6424767,
      16.3023401
     ],
     [
      120.6424713,
      16.3023125
     ],
     [
      120.6423648,
      16.3022359
     ],
     [
      120.6422785,
      16.302023
     ],
     [
      120.6423032,
      16.3019136
     ],
     [
      120.6422878,
      16.3018663
     ],
     [
      120.6422447,
      16.3018485
     ],
     [
      120.6420475,
      16.3015853
     ],
     [
      120.6418996,
      16.3015203
     ],
     [
      120.6418472,
      16.3014759
     ],
     [
      120.641841,
      16.3014316
     ],
     [
      120.6417794,
      16.3013547
     ],
     [
      120.6417733,
      16.3010945
     ],
     [
      120.6416931,
      16.3010264
     ],
     [
      120.6415391,
      16.3008135
     ],
     [
      120.6413974,
      16.3007485
     ],
     [
      120.6412988,
      16.3006923
     ],
     [
      120.6412495,
      16.3006302
     ],
     [
      120.6412402,
      16.3005858
     ],
     [
      120.6411047,
      16.3004468
     ],
     [
      120.6409167,
      16.300367
     ],
     [
      120.6408921,
      16.3003197
     ],
     [
      120.6408397,
      16.3003138
     ],
     [
      120.6407719,
      16.3002576
     ],
     [
      120.6405408,
      16.3001925
     ],
     [
      120.64047,
      16.3001984
     ],
     [
      120.6403837,
      16.3000831
     ],
     [
      120.6403036,
      16.3000151
     ],
     [
      120.6402913,
      16.300089
     ],
     [
      120.6402574,
      16.3001304
     ],
     [
      120.6401834,
      16.3001629
     ],
     [
      120.6400972,
      16.3001659
     ],
     [
      120.640014,
      16.3000979
     ],
     [
      120.6398353,
      16.2998938
     ],
     [
      120.6396073,
      16.2996632
     ],
     [
      120.639481,
      16.2996218
     ],
     [
      120.6393978,
      16.299536
     ],
     [
      120.63933,
      16.2994532
     ],
     [
      120.6392221,
      16.2993467
     ],
     [
      120.6391297,
      16.2993349
     ],
     [
      120.6390681,
      16.2993083
     ],
     [
      120.6390342,
      16.2992787
     ],
     [
      120.6389356,
      16.2992669
     ],
     [
      120.6389325,
      16.2992107
     ],
     [
      120.6389818,
      16.2991397
     ],
     [
      120.639028,
      16.2990983
     ],
     [
      120.639065,
      16.2990126
     ],
     [
      120.6389479,
      16.2987287
     ],
     [
      120.638914,
      16.298705
     ],
     [
      120.6388278,
      16.2986695
     ],
     [
      120.6387846,
      16.2986252
     ],
     [
      120.6387384,
      16.2984803
     ],
     [
      120.6387323,
      16.2983413
     ],
     [
      120.6386891,
      16.2981816
     ],
     [
      120.6385998,
      16.298084
     ],
     [
      120.6385382,
      16.2980633
     ],
     [
      120.6385043,
      16.2980249
     ],
     [
      120.6384149,
      16.2977912
     ],
     [
      120.6383009,
      16.2976493
     ],
     [
      120.6382485,
      16.2975606
     ],
     [
      120.6381962,
      16.2975458
     ],
     [
      120.6379558,
      16.2972442
     ],
     [
      120.6379651,
      16.2971288
     ],
     [
      120.6379127,
      16.2970283
     ],
     [
      120.6378295,
      16.2969455
     ],
     [
      120.637734,
      16.2968863
     ],
     [
      120.6376292,
      16.2967148
     ],
     [
      120.6374382,
      16.2963392
     ],
     [
      120.6374382,
      16.2962771
     ],
     [
      120.6374012,
      16.2961441
     ],
     [
      120.6371455,
      16.2957714
     ],
     [
      120.6371332,
      16.2956738
     ],
     [
      120.6371122,
      16.2956252
     ],
     [
      120.637029,
      16.2955647
     ],
     [
      120.636974,
      16.2955609
     ],
     [
      120.6369499,
      16.2954656
     ],
     [
      120.6369861,
      16.2954283
     ],
     [
      120.6370089,
      16.295382
     ],
     [
      120.6370854,
      16.2953343
     ],
     [
      120.6371605,
      16.2952108
     ],
     [
      120.6371484,
      16.2951554
     ],
     [
      120.6371189,
      16.2951194
     ],
     [
      120.6371014,
      16.2948516
     ],
     [
      120.6370813,
      16.2947049
     ],
     [
      120.6370767,
      16.2946047
     ],
     [
      120.63703,
      16.2945204
     ],
     [
      120.636973,
      16.2944494
     ],
     [
      120.6369099,
      16.2943444
     ],
     [
      120.6368837,
      16.2942587
     ],
     [
      120.6368344,
      16.2941921
     ],
     [
      120.6367851,
      16.294096
     ],
     [
      120.6367774,
      16.2939881
     ],
     [
      120.636742,
      16.2939526
     ],
     [
      120.6367158,
      16.2938609
     ],
     [
      120.6367142,
      16.2938092
     ],
     [
      120.6366803,
      16.2937293
     ],
     [
      120.6366141,
      16.2936317
     ],
     [
      120.6365278,
      16.2935578
     ],
     [
      120.6364215,
      16.2935134
     ],
     [
      120.6363168,
      16.2934927
     ],
     [
      120.6362598,
      16.2934676
     ],
     [
      120.6362197,
      16.2934336
     ],
     [
      120.6361997,
      16.2933878
     ],
     [
      120.6361858,
      16.2933434
     ],
     [
      120.636135,
      16.2933242
     ],
     [
      120.636001,
      16.2933907
     ],
     [
      120.635944,
      16.2934706
     ],
     [
      120.6357807,
      16.2935563
     ],
     [
      120.6356913,
      16.2936229
     ],
     [
      120.6356451,
      16.2936421
     ],
     [
      120.6355542,
      16.2936214
     ],
     [
      120.6354572,
      16.2935652
     ],
     [
      120.6354048,
      16.2935667
     ],
     [
      120.6352677,
      16.2934942
     ],
     [
      120.6350905,
      16.2933168
     ],
     [
      120.6349981,
      16.2932325
     ],
     [
      120.6349118,
      16.2931112
     ],
     [
      120.6347701,
      16.2929619
     ],
     [
      120.6346977,
      16.2929057
     ],
     [
      120.6345513,
      16.2928111
     ],
     [
      120.634482,
      16.2927312
     ],
     [
      120.6343696,
      16.2927179
     ],
     [
      120.6342833,
      16.2926854
     ],
     [
      120.6342226,
      16.2926059
     ],
     [
      120.6341998,
      16.2925725
     ],
     [
      120.6341609,
      16.2924914
     ],
     [
      120.6341283,
      16.2924504
     ],
     [
      120.6341444,
      16.2923861
     ],
     [
      120.6341699,
      16.292341
     ],
     [
      120.6341792,
      16.2922818
     ],
     [
      120.6341994,
      16.2922071
     ],
     [
      120.6342128,
      16.2921106
     ],
     [
      120.6342302,
      16.2920231
     ],
     [
      120.634257,
      16.2919767
     ],
     [
      120.6342852,
      16.2919188
     ],
     [
      120.6342275,
      16.2918261
     ],
     [
      120.6341873,
      16.2917373
     ],
     [
      120.6341457,
      16.2916987
     ],
     [
      120.634084,
      16.2916806
     ],
     [
      120.6340049,
      16.2916768
     ],
     [
      120.6339432,
      16.2916691
     ],
     [
      120.6338098,
      16.2916509
     ],
     [
      120.6335717,
      16.2913954
     ],
     [
      120.6332261,
      16.2913013
     ],
     [
      120.6330743,
      16.2913058
     ],
     [
      120.6328362,
      16.2912341
     ],
     [
      120.6327451,
      16.2911198
     ],
     [
      120.632598,
      16.2910055
     ],
     [
      120.6324485,
      16.2909517
     ],
     [
      120.6323762,
      16.2909494
     ],
     [
      120.6323295,
      16.2909741
     ],
     [
      120.6322431,
      16.2910794
     ],
     [
      120.632201,
      16.2911063
     ],
     [
      120.6321123,
      16.2911108
     ],
     [
      120.6319979,
      16.2910929
     ],
     [
      120.6319512,
      16.2910592
     ],
     [
      120.6319068,
      16.2910503
     ],
     [
      120.631699,
      16.290853
     ],
     [
      120.631643,
      16.2908441
     ],
     [
      120.6315519,
      16.2907612
     ],
     [
      120.6315145,
      16.2906715
     ],
     [
      120.6314492,
      16.290602
     ],
     [
      120.6314352,
      16.290555
     ],
     [
      120.6314001,
      16.2905191
     ],
     [
      120.6314235,
      16.2904291
     ],
     [
      120.6313896,
      16.2904067
     ],
     [
      120.6313021,
      16.2903954
     ],
     [
      120.6312052,
      16.2903338
     ]
    ]
   },
   "properties": {
    "id": "ulap-eco-trail",
    "destination": "ulap",
    "name": "Eco-Trail from Ampucao",
    "name_fil": "Eco-Trail mula Ampucao",
    "is_main": true,
    "description": "The Mt. Ulap Eco-Trail from the Ampucao side up to the summit, past Ambanaw-Paoay and Gungal Rock. The usual traverse continues down to Sta. Fe.",
    "length_m": 5086,
    "osm_ids": [
     "way/366755651",
     "way/760182512",
     "way/366755651",
     "way/760185742",
     "way/366755651",
     "way/760182513",
     "way/760182514",
     "way/760182515"
    ],
    "osm_timestamp": "2024-10-03T21:18:37Z",
    "osm_data_as_of": "2026-10-09T21:27:05Z",
    "source": "© OpenStreetMap contributors (ODbL)"
   }
  }
 ]
}
