{
 "type": "FeatureCollection",
 "features": [
  {
   "type": "Feature",
   "geometry": {
    "type": "LineString",
    "coordinates": [
     [
      120.8803508,
      16.5721757
     ],
     [
      120.8805849,
      16.5723556
     ],
     [
      120.8808216,
      16.5725266
     ],
     [
      120.8809584,
      16.5726242
     ],
     [
      120.8810375,
      16.5727335
     ],
     [
      120.8810737,
      16.5729025
     ],
     [
      120.8810884,
      16.5730394
     ],
     [
      120.8810864,
      16.5731821
     ],
     [
      120.8811005,
      16.5732669
     ],
     [
      120.8811314,
      16.5733614
     ],
     [
      120.8811347,
      16.5734565
     ],
     [
      120.881124,
      16.5735671
     ],
     [
      120.8811139,
      16.5736416
     ],
     [
      120.8811186,
      16.5737014
     ],
     [
      120.8811468,
      16.5737477
     ],
     [
      120.8811904,
      16.5737837
     ],
     [
      120.8812407,
      16.5738267
     ],
     [
      120.8812675,
      16.5738675
     ],
     [
      120.8812822,
      16.5739135
     ],
     [
      120.8812822,
      16.5739684
     ],
     [
      120.8812729,
      16.5740292
     ],
     [
      120.8812561,
      16.5740967
     ],
     [
      120.8812527,
      16.5741834
     ],
     [
      120.8812729,
      16.574283
     ],
     [
      120.8813158,
      16.5743981
     ],
     [
      120.8813695,
      16.5746036
     ],
     [
      120.8815031,
      16.57468
     ],
     [
      120.8817292,
      16.5747684
     ],
     [
      120.88196,
      16.5747921
     ],
     [
      120.8819871,
      16.5747994
     ],
     [
      120.8821279,
      16.5748375
     ],
     [
      120.8823489,
      16.5749632
     ],
     [
      120.8824858,
      16.5750589
     ],
     [
      120.8824995,
      16.5751587
     ],
     [
      120.8824781,
      16.5753705
     ],
     [
      120.8824851,
      16.5754608
     ],
     [
      120.8826031,
      16.5755456
     ],
     [
      120.8826466,
      16.5757348
     ],
     [
      120.8827701,
      16.5758348
     ],
     [
      120.8831527,
      16.5759146
     ],
     [
      120.8834221,
      16.576015
     ],
     [
      120.883642,
      16.576202
     ],
     [
      120.8838179,
      16.5764294
     ],
     [
      120.8839306,
      16.576505
     ],
     [
      120.8840393,
      16.5764986
     ],
     [
      120.8841725,
      16.5763898
     ],
     [
      120.8842635,
      16.5764247
     ],
     [
      120.88438,
      16.5763424
     ],
     [
      120.8843737,
      16.5762671
     ],
     [
      120.8843189,
      16.5761108
     ],
     [
      120.8842633,
      16.5760219
     ],
     [
      120.8841909,
      16.575748
     ],
     [
      120.8842049,
      16.5756383
     ],
     [
      120.884288,
      16.5755776
     ],
     [
      120.8844275,
      16.5755696
     ],
     [
      120.884713,
      16.57558
     ],
     [
      120.8851542,
      16.5754938
     ],
     [
      120.8854465,
      16.57539
     ],
     [
      120.8856738,
      16.575325
     ],
     [
      120.8858288,
      16.5752542
     ],
     [
      120.885958,
      16.575172
     ],
     [
      120.8861629,
      16.5751688
     ],
     [
      120.886388,
      16.575128
     ],
     [
      120.886477,
      16.5751344
     ],
     [
      120.8865587,
      16.5752212
     ],
     [
      120.8866306,
      16.5753635
     ],
     [
      120.8866803,
      16.5755143
     ],
     [
      120.8867537,
      16.575586
     ],
     [
      120.8868215,
      16.5755858
     ],
     [
      120.886983,
      16.5755511
     ],
     [
      120.8870805,
      16.5755603
     ],
     [
      120.8871391,
      16.5756181
     ],
     [
      120.8871189,
      16.5757008
     ],
     [
      120.886925,
      16.575967
     ],
     [
      120.8868671,
      16.576101
     ],
     [
      120.8867533,
      16.5762591
     ],
     [
      120.8867687,
      16.5763587
     ],
     [
      120.8868381,
      16.5764581
     ],
     [
      120.8868581,
      16.5765343
     ],
     [
      120.8868092,
      16.5766834
     ],
     [
      120.8868468,
      16.5767679
     ],
     [
      120.8869881,
      16.5767516
     ],
     [
      120.8872274,
      16.5766547
     ],
     [
      120.8875168,
      16.576585
     ],
     [
      120.88789,
      16.576523
     ],
     [
      120.8880609,
      16.576592
     ],
     [
      120.8881468,
      16.5770629
     ],
     [
      120.8881475,
      16.5770664
     ],
     [
      120.8881873,
      16.5772572
     ],
     [
      120.8883065,
      16.5773987
     ],
     [
      120.8884743,
      16.5774575
     ],
     [
      120.8887006,
      16.5775062
     ],
     [
      120.8888618,
      16.5774656
     ],
     [
      120.8888936,
      16.5774728
     ],
     [
      120.8890227,
      16.577502
     ],
     [
      120.8890253,
      16.5776317
     ],
     [
      120.88907,
      16.5777651
     ],
     [
      120.88913,
      16.5778354
     ],
     [
      120.889415,
      16.5779235
     ],
     [
      120.889692,
      16.577853
     ],
     [
      120.889778,
      16.57779
     ],
     [
      120.8900244,
      16.5777279
     ],
     [
      120.890315,
      16.57779
     ],
     [
      120.890615,
      16.57794
     ],
     [
      120.8907744,
      16.5779558
     ],
     [
      120.8911387,
      16.5778394
     ],
     [
      120.8912635,
      16.57783
     ],
     [
      120.8913676,
      16.5778343
     ],
     [
      120.8914501,
      16.5778689
     ],
     [
      120.8914764,
      16.5779235
     ],
     [
      120.8915191,
      16.5779528
     ],
     [
      120.8915166,
      16.5779995
     ],
     [
      120.8914568,
      16.5780244
     ],
     [
      120.8913956,
      16.5780856
     ],
     [
      120.8913779,
      16.5781377
     ],
     [
      120.8913451,
      16.5782822
     ],
     [
      120.8913572,
      16.578384
     ],
     [
      120.8915993,
      16.5785557
     ],
     [
      120.8919026,
      16.5786297
     ],
     [
      120.8920614,
      16.5787624
     ],
     [
      120.8922177,
      16.5788183
     ],
     [
      120.8922216,
      16.5788224
     ],
     [
      120.892272,
      16.5788762
     ],
     [
      120.8924278,
      16.5789462
     ],
     [
      120.8925574,
      16.5790479
     ],
     [
      120.8925636,
      16.579055
     ],
     [
      120.8926497,
      16.5791537
     ],
     [
      120.8926555,
      16.5792198
     ],
     [
      120.8926555,
      16.579302
     ],
     [
      120.8926793,
      16.5793348
     ],
     [
      120.8928929,
      16.5794097
     ],
     [
      120.89305,
      16.5794134
     ],
     [
      120.8930956,
      16.5795357
     ],
     [
      120.8931376,
      16.5795868
     ],
     [
      120.8931888,
      16.5796088
     ],
     [
      120.8933403,
      16.5796416
     ],
     [
      120.8933842,
      16.5796398
     ],
     [
      120.8934152,
      16.5796088
     ],
     [
      120.8934189,
      16.5795558
     ],
     [
      120.8934572,
      16.5795028
     ],
     [
      120.8934974,
      16.5794828
     ],
     [
      120.8935558,
      16.5794901
     ],
     [
      120.893627,
      16.5795248
     ],
     [
      120.893669,
      16.5795156
     ],
     [
      120.8937165,
      16.5794188
     ],
     [
      120.8938206,
      16.579302
     ],
     [
      120.8938389,
      16.5791504
     ],
     [
      120.8938608,
      16.5790682
     ],
     [
      120.8939594,
      16.5789988
     ],
     [
      120.8941731,
      16.579028
     ],
     [
      120.894237,
      16.5790043
     ],
     [
      120.8943648,
      16.5788546
     ],
     [
      120.8945949,
      16.5788071
     ],
     [
      120.8946241,
      16.5788418
     ],
     [
      120.8946424,
      16.5788893
     ],
     [
      120.8946953,
      16.578913
     ],
     [
      120.8948761,
      16.5789459
     ],
     [
      120.8949528,
      16.5789495
     ],
     [
      120.894959,
      16.5789449
     ],
     [
      120.8950167,
      16.578902
     ],
     [
      120.895066,
      16.5788473
     ],
     [
      120.8951318,
      16.5788418
     ],
     [
      120.8952341,
      16.5787906
     ],
     [
      120.8952852,
      16.5787249
     ],
     [
      120.8953436,
      16.5786738
     ],
     [
      120.8954203,
      16.5785587
     ],
     [
      120.8954861,
      16.5785386
     ],
     [
      120.8955262,
      16.5785076
     ],
     [
      120.8957636,
      16.5782446
     ],
     [
      120.8958495,
      16.578199
     ],
     [
      120.8958969,
      16.5782063
     ],
     [
      120.895959,
      16.5782647
     ],
     [
      120.8959828,
      16.578272
     ],
     [
      120.8961106,
      16.57823
     ],
     [
      120.8961362,
      16.5782428
     ],
     [
      120.8961398,
      16.5782885
     ],
     [
      120.8961033,
      16.5783761
     ],
     [
      120.8961051,
      16.578451
     ],
     [
      120.896127,
      16.5784765
     ],
     [
      120.8961763,
      16.5785076
     ],
     [
      120.8962293,
      16.5785039
     ],
     [
      120.8963133,
      16.5784784
     ],
     [
      120.896359,
      16.5784437
     ],
     [
      120.8964083,
      16.5784254
     ],
     [
      120.8964484,
      16.5784327
     ],
     [
      120.8965178,
      16.5785149
     ],
     [
      120.8965945,
      16.5787377
     ],
     [
      120.8966256,
      16.5787578
     ],
     [
      120.8966986,
      16.5787651
     ],
     [
      120.8967625,
      16.578787
     ],
     [
      120.8968685,
      16.5788436
     ],
     [
      120.8969232,
      16.5788473
     ],
     [
      120.8970182,
      16.5787815
     ],
     [
      120.8970912,
      16.5786957
     ],
     [
      120.8971369,
      16.5785898
     ],
     [
      120.8971484,
      16.578516
     ],
     [
      120.8971497,
      16.5785076
     ],
     [
      120.8971862,
      16.5783925
     ],
     [
      120.8972501,
      16.578314
     ],
     [
      120.8973396,
      16.5782629
     ],
     [
      120.8973816,
      16.5781898
     ],
     [
      120.8974419,
      16.5781278
     ],
     [
      120.8975332,
      16.5780858
     ],
     [
      120.8975715,
      16.5780255
     ],
     [
      120.8975734,
      16.577936
     ],
     [
      120.8975606,
      16.5778575
     ],
     [
      120.8975843,
      16.5777717
     ],
     [
      120.8975704,
      16.5776915
     ],
     [
      120.8975697,
      16.5776876
     ],
     [
      120.8975222,
      16.5776347
     ],
     [
      120.8975314,
      16.5774302
     ],
     [
      120.8975186,
      16.5773188
     ],
     [
      120.8974656,
      16.5772074
     ],
     [
      120.8974674,
      16.5771307
     ],
     [
      120.8974694,
      16.5771276
     ],
     [
      120.8974894,
      16.577096
     ],
     [
      120.8975204,
      16.5770887
     ],
     [
      120.8975624,
      16.5771033
     ],
     [
      120.8976044,
      16.5771362
     ],
     [
      120.8976921,
      16.5772311
     ],
     [
      120.8977614,
      16.5772786
     ],
     [
      120.8980664,
      16.5774229
     ],
     [
      120.8981121,
      16.5774849
     ],
     [
      120.8982034,
      16.5775269
     ],
     [
      120.8983002,
      16.5776036
     ],
     [
      120.8983075,
      16.5776129
     ],
     [
      120.8983529,
      16.5776707
     ],
     [
      120.8983604,
      16.5776803
     ],
     [
      120.8984594,
      16.5777034
     ],
     [
      120.89847,
      16.5777059
     ],
     [
      120.8985871,
      16.5777585
     ],
     [
      120.898596,
      16.5777625
     ],
     [
      120.8987074,
      16.5777808
     ],
     [
      120.8987859,
      16.5777479
     ],
     [
      120.8988394,
      16.5777571
     ],
     [
      120.8988498,
      16.5777589
     ],
     [
      120.8989704,
      16.5778319
     ],
     [
      120.8990398,
      16.5778429
     ],
     [
      120.8991986,
      16.5777662
     ],
     [
      120.8992699,
      16.5777552
     ],
     [
      120.8994178,
      16.5776383
     ],
     [
      120.8994726,
      16.5776402
     ],
     [
      120.8995657,
      16.5777278
     ],
     [
      120.8996716,
      16.5778684
     ],
     [
      120.8997684,
      16.5778995
     ],
     [
      120.8998013,
      16.5778885
     ],
     [
      120.8999565,
      16.5778794
     ],
     [
      120.9000478,
      16.5778922
     ],
     [
      120.9001117,
      16.5778812
     ],
     [
      120.9002067,
      16.577841
     ],
     [
      120.9003692,
      16.5776895
     ],
     [
      120.9004897,
      16.5776219
     ],
     [
      120.9005555,
      16.5775653
     ],
     [
      120.9006121,
      16.5774521
     ],
     [
      120.9006249,
      16.57739
     ],
     [
      120.9005938,
      16.5773571
     ],
     [
      120.9005262,
      16.577337
     ],
     [
      120.9005244,
      16.5773023
     ],
     [
      120.9006048,
      16.5771964
     ],
     [
      120.9006632,
      16.5771654
     ],
     [
      120.9007636,
      16.5771599
     ],
     [
      120.9007965,
      16.577127
     ],
     [
      120.9007983,
      16.5769627
     ],
     [
      120.9008276,
      16.5768641
     ],
     [
      120.9009006,
      16.5767454
     ],
     [
      120.9010175,
      16.5766924
     ],
     [
      120.9010942,
      16.5766833
     ],
     [
      120.901127,
      16.5767034
     ],
     [
      120.9011672,
      16.576707
     ],
     [
      120.9011873,
      16.5766833
     ],
     [
      120.9011946,
      16.5766303
     ],
     [
      120.9011745,
      16.576444
     ],
     [
      120.9012184,
      16.576424
     ],
     [
      120.9014886,
      16.5765463
     ],
     [
      120.9015945,
      16.5765445
     ],
     [
      120.9016512,
      16.5764313
     ],
     [
      120.9016712,
      16.576413
     ],
     [
      120.9017461,
      16.5763947
     ],
     [
      120.901821,
      16.5764075
     ],
     [
      120.9018502,
      16.5764313
     ],
     [
      120.9018466,
      16.5765591
     ],
     [
      120.9018666,
      16.5766723
     ],
     [
      120.9018593,
      16.5767801
     ],
     [
      120.9018685,
      16.5771124
     ],
     [
      120.9019543,
      16.5773425
     ],
     [
      120.9020438,
      16.5774521
     ],
     [
      120.9020766,
      16.5775343
     ],
     [
      120.9021069,
      16.5776607
     ],
     [
      120.902095,
      16.577833
     ],
     [
      120.902117,
      16.577875
     ],
     [
      120.9024896,
      16.5779804
     ],
     [
      120.9026727,
      16.578004
     ],
     [
      120.9028295,
      16.5780873
     ],
     [
      120.902975,
      16.578112
     ],
     [
      120.9031889,
      16.5780759
     ],
     [
      120.903575,
      16.578112
     ],
     [
      120.903683,
      16.578155
     ],
     [
      120.9040674,
      16.5784504
     ],
     [
      120.9044648,
      16.5786665
     ],
     [
      120.904713,
      16.579142
     ],
     [
      120.904777,
      16.579207
     ],
     [
      120.904733,
      16.579207
     ],
     [
      120.904798,
      16.579292
     ],
     [
      120.9049086,
      16.5795215
     ],
     [
      120.904927,
      16.57955
     ],
     [
      120.905013,
      16.579592
     ],
     [
      120.905228,
      16.579893
     ],
     [
      120.90542,
      16.580128
     ],
     [
      120.905507,
      16.580387
     ],
     [
      120.90555,
      16.5806
     ],
     [
      120.905743,
      16.580858
     ],
     [
      120.905893,
      16.58103
     ],
     [
      120.905957,
      16.581137
     ],
     [
      120.906022,
      16.58118
     ],
     [
      120.906022,
      16.581267
     ],
     [
      120.906107,
      16.58148
     ],
     [
      120.906128,
      16.58148
     ],
     [
      120.9062558,
      16.5816236
     ],
     [
      120.9062726,
      16.5816584
     ],
     [
      120.9063334,
      16.5817843
     ],
     [
      120.9063689,
      16.5819952
     ],
     [
      120.9064563,
      16.5821542
     ],
     [
      120.906515,
      16.582232
     ],
     [
      120.9066065,
      16.5825012
     ],
     [
      120.9069223,
      16.5828577
     ],
     [
      120.9070125,
      16.5829992
     ],
     [
      120.906933,
      16.5832224
     ],
     [
      120.906942,
      16.5833718
     ],
     [
      120.9070109,
      16.5835384
     ],
     [
      120.9071749,
      16.5838722
     ],
     [
      120.9072645,
      16.5839556
     ],
     [
      120.9072604,
      16.58403
     ],
     [
      120.9072207,
      16.5840904
     ],
     [
      120.9069718,
      16.5841156
     ],
     [
      120.9068711,
      16.5840924
     ],
     [
      120.9068141,
      16.58413
     ],
     [
      120.9067959,
      16.584142
     ],
     [
      120.9067866,
      16.5841962
     ],
     [
      120.9067795,
      16.5843003
     ],
     [
      120.9067851,
      16.5844788
     ],
     [
      120.9068189,
      16.5845905
     ],
     [
      120.9068168,
      16.5846954
     ],
     [
      120.906687,
      16.5847362
     ],
     [
      120.9065646,
      16.5848315
     ],
     [
      120.9065597,
      16.584943
     ],
     [
      120.9065974,
      16.5850045
     ],
     [
      120.9067133,
      16.5850935
     ],
     [
      120.9068107,
      16.5853145
     ],
     [
      120.9068236,
      16.5853971
     ],
     [
      120.9069223,
      16.5855499
     ],
     [
      120.9071621,
      16.5857009
     ],
     [
      120.907276,
      16.5858371
     ],
     [
      120.9073289,
      16.5858723
     ],
     [
      120.9075992,
      16.5860336
     ],
     [
      120.9077714,
      16.5861512
     ],
     [
      120.90791,
      16.586352
     ],
     [
      120.9081588,
      16.5867806
     ],
     [
      120.9081816,
      16.5869045
     ],
     [
      120.9082462,
      16.5870718
     ],
     [
      120.9084314,
      16.5873148
     ],
     [
      120.9084699,
      16.5874264
     ],
     [
      120.9085729,
      16.5875929
     ],
     [
      120.9087921,
      16.5880415
     ],
     [
      120.908812,
      16.588132
     ],
     [
      120.908812,
      16.588218
     ],
     [
      120.9090973,
      16.5888576
     ],
     [
      120.9091344,
      16.5889909
     ],
     [
      120.9092416,
      16.5892171
     ],
     [
      120.9092331,
      16.5892466
     ],
     [
      120.909197,
      16.589292
     ],
     [
      120.909003,
      16.589505
     ],
     [
      120.908812,
      16.589742
     ],
     [
      120.90866,
      16.589978
     ],
     [
      120.908425,
      16.590278
     ],
     [
      120.908338,
      16.5903
     ],
     [
      120.908253,
      16.590407
     ],
     [
      120.90821,
      16.590515
     ],
     [
      120.907953,
      16.590728
     ],
     [
      120.907845,
      16.590793
     ],
     [
      120.907782,
      16.5909
     ],
     [
      120.907588,
      16.591158
     ],
     [
      120.90748,
      16.591437
     ],
     [
      120.907417,
      16.591737
     ],
     [
      120.907223,
      16.591908
     ],
     [
      120.907095,
      16.592058
     ],
     [
      120.906945,
      16.592102
     ],
     [
      120.906773,
      16.592123
     ],
     [
      120.906537,
      16.59223
     ],
     [
      120.906387,
      16.592338
     ],
     [
      120.906237,
      16.592638
     ],
     [
      120.906128,
      16.592682
     ],
     [
      120.906,
      16.592682
     ],
     [
      120.905957,
      16.59266
     ],
     [
      120.905657,
      16.592767
     ],
     [
      120.905485,
      16.592917
     ],
     [
      120.905357,
      16.593175
     ],
     [
      120.905142,
      16.593303
     ],
     [
      120.905013,
      16.593282
     ],
     [
      120.904798,
      16.593218
     ],
     [
      120.904755,
      16.593325
     ],
     [
      120.904562,
      16.593432
     ],
     [
      120.904498,
      16.593497
     ],
     [
      120.904455,
      16.593518
     ],
     [
      120.9044002,
      16.5936399
     ],
     [
      120.9043866,
      16.5938608
     ],
     [
      120.9043964,
      16.593956
     ],
     [
      120.9044354,
      16.5940868
     ],
     [
      120.9044296,
      16.5942068
     ],
     [
      120.90439,
      16.594398
     ],
     [
      120.90439,
      16.594505
     ],
     [
      120.9042243,
      16.5945556
     ],
     [
      120.9041346,
      16.5947603
     ],
     [
      120.904068,
      16.594827
     ],
     [
      120.903833,
      16.594913
     ],
     [
      120.903468,
      16.594913
     ],
     [
      120.903382,
      16.594935
     ],
     [
      120.90334,
      16.594977
     ],
     [
      120.903188,
      16.595278
     ],
     [
      120.903147,
      16.59545
     ],
     [
      120.903038,
      16.595428
     ],
     [
      120.902867,
      16.59545
     ],
     [
      120.902867,
      16.595663
     ],
     [
      120.902782,
      16.595878
     ],
     [
      120.902803,
      16.596265
     ],
     [
      120.902867,
      16.596502
     ],
     [
      120.902803,
      16.596608
     ],
     [
      120.902738,
      16.596823
     ],
     [
      120.902502,
      16.596995
     ],
     [
      120.902373,
      16.597123
     ],
     [
      120.902245,
      16.59723
     ],
     [
      120.901795,
      16.597273
     ],
     [
      120.90173,
      16.597252
     ],
     [
      120.90158,
      16.597273
     ],
     [
      120.901452,
      16.597467
     ],
     [
      120.901258,
      16.597638
     ],
     [
      120.901087,
      16.597723
     ],
     [
      120.900937,
      16.597895
     ],
     [
      120.90085,
      16.598025
     ],
     [
      120.900807,
      16.598067
     ],
     [
      120.900765,
      16.5981399
     ],
     [
      120.9007102,
      16.5981904
     ],
     [
      120.9006424,
      16.598205
     ],
     [
      120.9005263,
      16.5981796
     ],
     [
      120.900361,
      16.5981491
     ],
     [
      120.9002207,
      16.5981262
     ],
     [
      120.9001139,
      16.5981079
     ],
     [
      120.9000166,
      16.5980559
     ],
     [
      120.8999114,
      16.5979612
     ],
     [
      120.8997902,
      16.5978496
     ],
     [
      120.8997168,
      16.5977473
     ],
     [
      120.8996706,
      16.5976495
     ],
     [
      120.8996515,
      16.5975394
     ],
     [
      120.8996403,
      16.5974371
     ],
     [
      120.899618,
      16.5973805
     ],
     [
      120.8995813,
      16.5973591
     ],
     [
      120.899543,
      16.5973683
     ],
     [
      120.8995,
      16.5974126
     ],
     [
      120.8994713,
      16.5974905
     ],
     [
      120.8994155,
      16.5976296
     ],
     [
      120.8993533,
      16.5977304
     ],
     [
      120.8992768,
      16.5978389
     ],
     [
      120.8992544,
      16.5979108
     ],
     [
      120.8992417,
      16.5979917
     ],
     [
      120.8992305,
      16.5980345
     ],
     [
      120.8991986,
      16.5980529
     ],
     [
      120.8991285,
      16.5980345
     ],
     [
      120.8990583,
      16.5979856
     ],
     [
      120.8989802,
      16.5979046
     ],
     [
      120.898843,
      16.5977606
     ]
    ]
   },
   "properties": {
    "id": "pulag-ambangeg-trail",
    "destination": "pulag",
    "name": "Ambangeg Trail",
    "name_fil": "Ambangeg Trail",
    "is_main": true,
    "description": "The easiest and most used Trail up Mt. Pulag: from the ranger station in Bashoy, Kabayan, through mossy forest past Camp 1 and Camp 2, then over open grassland to the summit. Hikers return the same way.",
    "length_m": 7425,
    "osm_ids": [
     "relation/3625651",
     "way/28489050",
     "way/712312668",
     "way/70084439",
     "way/28489052",
     "way/28489053"
    ],
    "osm_timestamp": "2025-12-21T13:22:47Z",
    "osm_data_as_of": "2026-10-09T23:20:51Z",
    "source": "© OpenStreetMap contributors (ODbL)"
   }
  }
 ]
}
