{
 "type": "FeatureCollection",
 "metadata": {
  "attribution": "© OpenStreetMap contributors",
  "license": "ODbL-1.0",
  "osm_data_as_of": "2026-10-09T18:12:15Z",
  "generator": "content/batulao/scripts/build_geojson.py"
 },
 "features": [
  {
   "type": "Feature",
   "id": "batulao-new-trail",
   "properties": {
    "id": "batulao-new-trail",
    "destination": "mt-batulao",
    "name": "New Trail",
    "name_fil": "Bagong Trail",
    "is_main": true,
    "description": "West ridge over Peaks 1 to 11. Reported as the gentler, more common way up for first-timers.",
    "length_m": 3392,
    "osm_ids": [
     "relation/3350629",
     "way/885765978",
     "way/188934002",
     "way/51822351",
     "way/188933993",
     "way/188933994"
    ],
    "osm_timestamp": "2021-05-15T11:33:55Z",
    "osm_data_as_of": "2026-10-09T18:12:15Z",
    "source": "© OpenStreetMap contributors, ODbL"
   },
   "geometry": {
    "type": "LineString",
    "coordinates": [
     [
      120.8205722,
      14.0554825
     ],
     [
      120.8202554,
      14.0554738
     ],
     [
      120.8201824,
      14.0554508
     ],
     [
      120.8200522,
      14.0554099
     ],
     [
      120.819959,
      14.055421
     ],
     [
      120.8196939,
      14.0555447
     ],
     [
      120.8194895,
      14.0555594
     ],
     [
      120.8193132,
      14.0555809
     ],
     [
      120.819069,
      14.0556311
     ],
     [
      120.8189069,
      14.0557065
     ],
     [
      120.8187707,
      14.05578
     ],
     [
      120.8185914,
      14.0555842
     ],
     [
      120.8184226,
      14.0555553
     ],
     [
      120.8182288,
      14.0555919
     ],
     [
      120.8179019,
      14.0557017
     ],
     [
      120.817739,
      14.0557348
     ],
     [
      120.8175863,
      14.0557399
     ],
     [
      120.8173857,
      14.055705
     ],
     [
      120.8170375,
      14.0556136
     ],
     [
      120.8169341,
      14.0555529
     ],
     [
      120.816671,
      14.0553402
     ],
     [
      120.8166011,
      14.0552518
     ],
     [
      120.8164939,
      14.0550686
     ],
     [
      120.816407,
      14.0549468
     ],
     [
      120.8163278,
      14.0548868
     ],
     [
      120.8162162,
      14.0548361
     ],
     [
      120.8161421,
      14.0547849
     ],
     [
      120.8160515,
      14.0546755
     ],
     [
      120.8159444,
      14.0546039
     ],
     [
      120.8156626,
      14.0544766
     ],
     [
      120.8155273,
      14.054364
     ],
     [
      120.8153795,
      14.0541787
     ],
     [
      120.8153307,
      14.0539678
     ],
     [
      120.815212,
      14.0538796
     ],
     [
      120.8150767,
      14.0538852
     ],
     [
      120.8149598,
      14.0538785
     ],
     [
      120.8148724,
      14.0538599
     ],
     [
      120.8147655,
      14.0537811
     ],
     [
      120.8146452,
      14.053659
     ],
     [
      120.8144642,
      14.0536139
     ],
     [
      120.8142916,
      14.0535495
     ],
     [
      120.8141395,
      14.0535551
     ],
     [
      120.8138037,
      14.0534524
     ],
     [
      120.8136603,
      14.0533751
     ],
     [
      120.8135973,
      14.0533262
     ],
     [
      120.813544,
      14.0531736
     ],
     [
      120.8133545,
      14.0530794
     ],
     [
      120.8132626,
      14.0530212
     ],
     [
      120.8131394,
      14.0529618
     ],
     [
      120.8129094,
      14.0528757
     ],
     [
      120.8126627,
      14.0528028
     ],
     [
      120.8124052,
      14.0527612
     ],
     [
      120.8120833,
      14.05273
     ],
     [
      120.8117936,
      14.0527612
     ],
     [
      120.8116542,
      14.0528236
     ],
     [
      120.8114289,
      14.0528132
     ],
     [
      120.8113625,
      14.0527992
     ],
     [
      120.8111821,
      14.0527612
     ],
     [
      120.8108817,
      14.0525114
     ],
     [
      120.8106242,
      14.0522824
     ],
     [
      120.8105631,
      14.0522328
     ],
     [
      120.8104903,
      14.0522362
     ],
     [
      120.8104644,
      14.0522657
     ],
     [
      120.8104299,
      14.0522667
     ],
     [
      120.8104019,
      14.0522359
     ],
     [
      120.8103989,
      14.0521952
     ],
     [
      120.8101843,
      14.0522304
     ],
     [
      120.8099483,
      14.0521992
     ],
     [
      120.8096745,
      14.0520744
     ],
     [
      120.8095333,
      14.0520666
     ],
     [
      120.8094711,
      14.0520894
     ],
     [
      120.8094001,
      14.0521021
     ],
     [
      120.8092898,
      14.0521285
     ],
     [
      120.8091806,
      14.0521532
     ],
     [
      120.8090893,
      14.0521778
     ],
     [
      120.8090011,
      14.052169
     ],
     [
      120.808575,
      14.0520534
     ],
     [
      120.8085137,
      14.0520353
     ],
     [
      120.8084785,
      14.0520348
     ],
     [
      120.8084394,
      14.0520196
     ],
     [
      120.808373,
      14.0520334
     ],
     [
      120.8083488,
      14.0520487
     ],
     [
      120.8083073,
      14.0520441
     ],
     [
      120.80824,
      14.0520499
     ],
     [
      120.8081031,
      14.0520476
     ],
     [
      120.8079801,
      14.0520337
     ],
     [
      120.8078972,
      14.0520295
     ],
     [
      120.807862,
      14.0520175
     ],
     [
      120.8078361,
      14.0519968
     ],
     [
      120.807782,
      14.0519721
     ],
     [
      120.8077331,
      14.0519426
     ],
     [
      120.8076631,
      14.0519015
     ],
     [
      120.807622,
      14.0518868
     ],
     [
      120.807586,
      14.05188
     ],
     [
      120.807541,
      14.0518763
     ],
     [
      120.8074737,
      14.0518736
     ],
     [
      120.807427,
      14.0518678
     ],
     [
      120.8073841,
      14.0518556
     ],
     [
      120.8073378,
      14.0518338
     ],
     [
      120.8072945,
      14.0518061
     ],
     [
      120.8072447,
      14.051766
     ],
     [
      120.8072027,
      14.0517182
     ],
     [
      120.8071779,
      14.0516601
     ],
     [
      120.8071598,
      14.0516158
     ],
     [
      120.8071333,
      14.0515696
     ],
     [
      120.8070737,
      14.0515187
     ],
     [
      120.8069838,
      14.0514533
     ],
     [
      120.8069371,
      14.0514327
     ],
     [
      120.8068584,
      14.0513978
     ],
     [
      120.806676,
      14.0513353
     ],
     [
      120.806558,
      14.0512312
     ],
     [
      120.8064936,
      14.0510751
     ],
     [
      120.8063649,
      14.0509606
     ],
     [
      120.8062254,
      14.0508461
     ],
     [
      120.8061288,
      14.0506692
     ],
     [
      120.805925,
      14.0504298
     ],
     [
      120.8058928,
      14.0503466
     ],
     [
      120.8059305,
      14.0503264
     ],
     [
      120.8059515,
      14.0502965
     ],
     [
      120.8059268,
      14.0502638
     ],
     [
      120.8059242,
      14.0502219
     ],
     [
      120.805833,
      14.0501867
     ],
     [
      120.8057748,
      14.0500239
     ],
     [
      120.8056782,
      14.049899
     ],
     [
      120.8055495,
      14.0496596
     ],
     [
      120.8053885,
      14.0495139
     ],
     [
      120.8053134,
      14.0493474
     ],
     [
      120.8053134,
      14.0491392
     ],
     [
      120.8052276,
      14.0489935
     ],
     [
      120.8051203,
      14.0487333
     ],
     [
      120.8050667,
      14.0485564
     ],
     [
      120.8050479,
      14.048447
     ],
     [
      120.8050108,
      14.0484151
     ],
     [
      120.8049701,
      14.0483899
     ],
     [
      120.8048414,
      14.0482962
     ],
     [
      120.8047555,
      14.0480985
     ],
     [
      120.8046912,
      14.0479527
     ],
     [
      120.8046912,
      14.0477134
     ],
     [
      120.804622,
      14.0475028
     ],
     [
      120.80458,
      14.0474573
     ],
     [
      120.8045165,
      14.0474055
     ],
     [
      120.8044902,
      14.047388
     ],
     [
      120.8044791,
      14.047354
     ],
     [
      120.8043942,
      14.0472701
     ],
     [
      120.8041654,
      14.0471721
     ],
     [
      120.8039284,
      14.0470839
     ],
     [
      120.8038297,
      14.046984
     ],
     [
      120.8037577,
      14.0468807
     ],
     [
      120.8036826,
      14.0465581
     ],
     [
      120.8036505,
      14.0462979
     ],
     [
      120.8035877,
      14.0462163
     ],
     [
      120.8035383,
      14.0461981
     ],
     [
      120.8034541,
      14.0461171
     ],
     [
      120.803224,
      14.0459718
     ],
     [
      120.8031549,
      14.0458983
     ],
     [
      120.8030826,
      14.0458242
     ],
     [
      120.8030646,
      14.0457699
     ],
     [
      120.8029186,
      14.0456555
     ],
     [
      120.8027953,
      14.045559
     ],
     [
      120.8027414,
      14.0454903
     ],
     [
      120.8027227,
      14.0454525
     ],
     [
      120.8027037,
      14.0453865
     ],
     [
      120.8026128,
      14.0453008
     ],
     [
      120.8024713,
      14.0452033
     ],
     [
      120.8023777,
      14.0451335
     ],
     [
      120.8023443,
      14.0450885
     ],
     [
      120.8023336,
      14.0449436
     ],
     [
      120.8022974,
      14.0447053
     ],
     [
      120.8020411,
      14.0445389
     ],
     [
      120.8020054,
      14.0444828
     ],
     [
      120.8019017,
      14.0443203
     ],
     [
      120.8019017,
      14.0441434
     ],
     [
      120.8018158,
      14.0439977
     ],
     [
      120.8017407,
      14.0438312
     ],
     [
      120.8017493,
      14.0437651
     ],
     [
      120.8017358,
      14.0436923
     ],
     [
      120.8016667,
      14.0436078
     ],
     [
      120.8016383,
      14.0435367
     ],
     [
      120.8016442,
      14.043394
     ],
     [
      120.8016583,
      14.0433523
     ],
     [
      120.8016508,
      14.0433276
     ],
     [
      120.8016671,
      14.0432698
     ],
     [
      120.8016942,
      14.043241
     ],
     [
      120.8017039,
      14.0431986
     ],
     [
      120.80171,
      14.0431617
     ],
     [
      120.8017497,
      14.0431996
     ],
     [
      120.8017842,
      14.0431886
     ],
     [
      120.8017948,
      14.0431398
     ],
     [
      120.8017167,
      14.0430664
     ],
     [
      120.8016785,
      14.043057
     ],
     [
      120.801602,
      14.0429827
     ],
     [
      120.8015828,
      14.0429469
     ],
     [
      120.801527,
      14.0429093
     ],
     [
      120.8015261,
      14.0428632
     ],
     [
      120.8014918,
      14.0428554
     ],
     [
      120.801494,
      14.0428183
     ],
     [
      120.8015075,
      14.0427878
     ],
     [
      120.8015338,
      14.0427754
     ],
     [
      120.8015695,
      14.0427902
     ],
     [
      120.801554,
      14.0427477
     ],
     [
      120.8015435,
      14.0427063
     ],
     [
      120.801527,
      14.0426706
     ],
     [
      120.801542,
      14.042627
     ],
     [
      120.8015856,
      14.0425871
     ],
     [
      120.801599,
      14.0425418
     ],
     [
      120.801578,
      14.0425157
     ],
     [
      120.8014832,
      14.0424677
     ],
     [
      120.8014713,
      14.0424137
     ],
     [
      120.8014787,
      14.0423582
     ],
     [
      120.8014698,
      14.0423333
     ],
     [
      120.8015116,
      14.04228
     ],
     [
      120.8015084,
      14.0422398
     ],
     [
      120.8014857,
      14.0421855
     ],
     [
      120.8014798,
      14.0421421
     ],
     [
      120.8015545,
      14.0420889
     ],
     [
      120.801381,
      14.041979
     ],
     [
      120.8013548,
      14.0419435
     ],
     [
      120.8013353,
      14.041921
     ],
     [
      120.8013,
      14.0419137
     ],
     [
      120.8012918,
      14.0418744
     ],
     [
      120.8012558,
      14.0418548
     ],
     [
      120.8012993,
      14.0418126
     ],
     [
      120.8013079,
      14.0417823
     ],
     [
      120.8012745,
      14.0417929
     ],
     [
      120.8012633,
      14.0418068
     ],
     [
      120.8012527,
      14.0418012
     ],
     [
      120.8012714,
      14.0417626
     ],
     [
      120.8012665,
      14.0415778
     ],
     [
      120.8012307,
      14.0415413
     ],
     [
      120.8012217,
      14.0415209
     ],
     [
      120.801209,
      14.0415362
     ],
     [
      120.8011947,
      14.0414991
     ],
     [
      120.8012112,
      14.0414685
     ],
     [
      120.8011687,
      14.0414279
     ],
     [
      120.8011945,
      14.0413709
     ],
     [
      120.8012103,
      14.0413132
     ],
     [
      120.8012794,
      14.0412083
     ],
     [
      120.8013759,
      14.041073
     ],
     [
      120.8013974,
      14.0408752
     ],
     [
      120.8014136,
      14.0408243
     ],
     [
      120.8014605,
      14.0408018
     ],
     [
      120.8014701,
      14.0407288
     ],
     [
      120.8014469,
      14.040656
     ],
     [
      120.8015303,
      14.0405498
     ],
     [
      120.8015936,
      14.0404852
     ],
     [
      120.8016533,
      14.0405065
     ],
     [
      120.801659,
      14.0404894
     ],
     [
      120.8016808,
      14.0404803
     ],
     [
      120.801698,
      14.0404872
     ],
     [
      120.8016842,
      14.0404657
     ],
     [
      120.8016902,
      14.0404333
     ],
     [
      120.8017329,
      14.0403991
     ],
     [
      120.8017209,
      14.0403817
     ],
     [
      120.8017562,
      14.0403653
     ],
     [
      120.8017539,
      14.0403453
     ],
     [
      120.8017341,
      14.0403334
     ],
     [
      120.801731,
      14.0403246
     ],
     [
      120.8017408,
      14.0403071
     ],
     [
      120.8017577,
      14.0402944
     ],
     [
      120.8017835,
      14.0402464
     ],
     [
      120.8018158,
      14.0402195
     ],
     [
      120.8018575,
      14.0401519
     ],
     [
      120.8018663,
      14.0401169
     ],
     [
      120.801866,
      14.040084
     ],
     [
      120.8019814,
      14.0400527
     ],
     [
      120.8020114,
      14.0400469
     ],
     [
      120.8020096,
      14.0400312
     ],
     [
      120.8020342,
      14.0400346
     ],
     [
      120.8020819,
      14.0400192
     ],
     [
      120.8020995,
      14.039978
     ],
     [
      120.8022128,
      14.0399072
     ],
     [
      120.8022354,
      14.0398863
     ],
     [
      120.8022675,
      14.0398728
     ],
     [
      120.8022969,
      14.039883
     ],
     [
      120.8023273,
      14.0399096
     ],
     [
      120.8023425,
      14.0399101
     ],
     [
      120.8023388,
      14.0398969
     ],
     [
      120.8023472,
      14.0398861
     ]
    ]
   }
  },
  {
   "type": "Feature",
   "id": "batulao-old-trail",
   "properties": {
    "id": "batulao-old-trail",
    "destination": "mt-batulao",
    "name": "Old Trail",
    "name_fil": "Lumang Trail",
    "is_main": false,
    "description": "East side via Camps 1 to 9, with the steep roped section below the summit. Often used for the descent of a New-to-Old traverse.",
    "length_m": 4186,
    "osm_ids": [
     "relation/3350629",
     "way/885765978",
     "way/188934002",
     "way/51822692",
     "way/188933995",
     "way/188933999"
    ],
    "osm_timestamp": "2021-05-15T11:33:55Z",
    "osm_data_as_of": "2026-10-09T18:12:15Z",
    "source": "© OpenStreetMap contributors, ODbL"
   },
   "geometry": {
    "type": "LineString",
    "coordinates": [
     [
      120.8205722,
      14.0554825
     ],
     [
      120.8202554,
      14.0554738
     ],
     [
      120.8201824,
      14.0554508
     ],
     [
      120.8200522,
      14.0554099
     ],
     [
      120.819959,
      14.055421
     ],
     [
      120.8196939,
      14.0555447
     ],
     [
      120.8194895,
      14.0555594
     ],
     [
      120.8193132,
      14.0555809
     ],
     [
      120.819069,
      14.0556311
     ],
     [
      120.8189069,
      14.0557065
     ],
     [
      120.8187707,
      14.05578
     ],
     [
      120.8185914,
      14.0555842
     ],
     [
      120.8184226,
      14.0555553
     ],
     [
      120.8182288,
      14.0555919
     ],
     [
      120.8179019,
      14.0557017
     ],
     [
      120.817739,
      14.0557348
     ],
     [
      120.8175863,
      14.0557399
     ],
     [
      120.8173857,
      14.055705
     ],
     [
      120.8170375,
      14.0556136
     ],
     [
      120.8169341,
      14.0555529
     ],
     [
      120.816671,
      14.0553402
     ],
     [
      120.8166011,
      14.0552518
     ],
     [
      120.8164939,
      14.0550686
     ],
     [
      120.816407,
      14.0549468
     ],
     [
      120.8163278,
      14.0548868
     ],
     [
      120.8162162,
      14.0548361
     ],
     [
      120.8161421,
      14.0547849
     ],
     [
      120.8160515,
      14.0546755
     ],
     [
      120.8159444,
      14.0546039
     ],
     [
      120.8156626,
      14.0544766
     ],
     [
      120.8155273,
      14.054364
     ],
     [
      120.8153795,
      14.0541787
     ],
     [
      120.8153307,
      14.0539678
     ],
     [
      120.815212,
      14.0538796
     ],
     [
      120.8150767,
      14.0538852
     ],
     [
      120.8149598,
      14.0538785
     ],
     [
      120.8148724,
      14.0538599
     ],
     [
      120.8147655,
      14.0537811
     ],
     [
      120.8146452,
      14.053659
     ],
     [
      120.8144642,
      14.0536139
     ],
     [
      120.8142916,
      14.0535495
     ],
     [
      120.8141395,
      14.0535551
     ],
     [
      120.8138037,
      14.0534524
     ],
     [
      120.8136603,
      14.0533751
     ],
     [
      120.8135973,
      14.0533262
     ],
     [
      120.813544,
      14.0531736
     ],
     [
      120.8133545,
      14.0530794
     ],
     [
      120.8132626,
      14.0530212
     ],
     [
      120.8131394,
      14.0529618
     ],
     [
      120.8129094,
      14.0528757
     ],
     [
      120.8126627,
      14.0528028
     ],
     [
      120.8124052,
      14.0527612
     ],
     [
      120.8120833,
      14.05273
     ],
     [
      120.8117936,
      14.0527612
     ],
     [
      120.8116542,
      14.0528236
     ],
     [
      120.8114289,
      14.0528132
     ],
     [
      120.8113625,
      14.0527992
     ],
     [
      120.8111821,
      14.0527612
     ],
     [
      120.8108817,
      14.0525114
     ],
     [
      120.8106242,
      14.0522824
     ],
     [
      120.8105631,
      14.0522328
     ],
     [
      120.8104903,
      14.0522362
     ],
     [
      120.8104644,
      14.0522657
     ],
     [
      120.8104299,
      14.0522667
     ],
     [
      120.8104019,
      14.0522359
     ],
     [
      120.8103989,
      14.0521952
     ],
     [
      120.8101843,
      14.0522304
     ],
     [
      120.8099483,
      14.0521992
     ],
     [
      120.8096745,
      14.0520744
     ],
     [
      120.8095333,
      14.0520666
     ],
     [
      120.8094711,
      14.0520894
     ],
     [
      120.8094001,
      14.0521021
     ],
     [
      120.8092898,
      14.0521285
     ],
     [
      120.8091806,
      14.0521532
     ],
     [
      120.8090893,
      14.0521778
     ],
     [
      120.8090011,
      14.052169
     ],
     [
      120.808575,
      14.0520534
     ],
     [
      120.8085137,
      14.0520353
     ],
     [
      120.8084785,
      14.0520348
     ],
     [
      120.8084394,
      14.0520196
     ],
     [
      120.808373,
      14.0520334
     ],
     [
      120.8083488,
      14.0520487
     ],
     [
      120.8083073,
      14.0520441
     ],
     [
      120.80824,
      14.0520499
     ],
     [
      120.8081031,
      14.0520476
     ],
     [
      120.8079801,
      14.0520337
     ],
     [
      120.8078972,
      14.0520295
     ],
     [
      120.807862,
      14.0520175
     ],
     [
      120.8078361,
      14.0519968
     ],
     [
      120.807782,
      14.0519721
     ],
     [
      120.8077331,
      14.0519426
     ],
     [
      120.8076631,
      14.0519015
     ],
     [
      120.807622,
      14.0518868
     ],
     [
      120.807586,
      14.05188
     ],
     [
      120.807541,
      14.0518763
     ],
     [
      120.8074737,
      14.0518736
     ],
     [
      120.807427,
      14.0518678
     ],
     [
      120.8073841,
      14.0518556
     ],
     [
      120.8073378,
      14.0518338
     ],
     [
      120.8072945,
      14.0518061
     ],
     [
      120.8072447,
      14.051766
     ],
     [
      120.8072027,
      14.0517182
     ],
     [
      120.8071779,
      14.0516601
     ],
     [
      120.8071598,
      14.0516158
     ],
     [
      120.8071333,
      14.0515696
     ],
     [
      120.8070737,
      14.0515187
     ],
     [
      120.8069838,
      14.0514533
     ],
     [
      120.8069371,
      14.0514327
     ],
     [
      120.8069261,
      14.0514137
     ],
     [
      120.8069059,
      14.0513747
     ],
     [
      120.8068642,
      14.0513325
     ],
     [
      120.8068476,
      14.0512737
     ],
     [
      120.8068009,
      14.0512497
     ],
     [
      120.8067868,
      14.0512082
     ],
     [
      120.8067909,
      14.0511086
     ],
     [
      120.8067728,
      14.0510607
     ],
     [
      120.8067739,
      14.0510077
     ],
     [
      120.806793,
      14.0509799
     ],
     [
      120.8068237,
      14.0509095
     ],
     [
      120.8068381,
      14.0508817
     ],
     [
      120.8068439,
      14.0508169
     ],
     [
      120.8068133,
      14.0507534
     ],
     [
      120.8067038,
      14.0506196
     ],
     [
      120.8066738,
      14.0505569
     ],
     [
      120.8066465,
      14.0504677
     ],
     [
      120.8067574,
      14.0502969
     ],
     [
      120.8068862,
      14.0502449
     ],
     [
      120.8070256,
      14.05012
     ],
     [
      120.8071973,
      14.050068
     ],
     [
      120.807208,
      14.0499118
     ],
     [
      120.8072617,
      14.0497349
     ],
     [
      120.8073582,
      14.0496412
     ],
     [
      120.8073368,
      14.0495476
     ],
     [
      120.8072188,
      14.0495059
     ],
     [
      120.8071329,
      14.0494539
     ],
     [
      120.8070793,
      14.0492978
     ],
     [
      120.8070042,
      14.0491833
     ],
     [
      120.8068003,
      14.0491417
     ],
     [
      120.8067039,
      14.0491631
     ],
     [
      120.8066889,
      14.0490758
     ],
     [
      120.8066499,
      14.0490322
     ],
     [
      120.8065944,
      14.0489958
     ],
     [
      120.8065734,
      14.0489492
     ],
     [
      120.8067467,
      14.0488711
     ],
     [
      120.8068433,
      14.048819
     ],
     [
      120.8070042,
      14.0487566
     ],
     [
      120.8071222,
      14.048767
     ],
     [
      120.8071973,
      14.0487774
     ],
     [
      120.8072617,
      14.0488502
     ],
     [
      120.8074226,
      14.0487462
     ],
     [
      120.8074441,
      14.0486213
     ],
     [
      120.8075084,
      14.0485484
     ],
     [
      120.8075406,
      14.0484027
     ],
     [
      120.8074655,
      14.0482882
     ],
     [
      120.8074012,
      14.0481737
     ],
     [
      120.8072831,
      14.0481321
     ],
     [
      120.807208,
      14.0480384
     ],
     [
      120.8070793,
      14.0479552
     ],
     [
      120.8070149,
      14.0478823
     ],
     [
      120.8069184,
      14.0478615
     ],
     [
      120.8068325,
      14.0478094
     ],
     [
      120.8067232,
      14.0477773
     ],
     [
      120.8066301,
      14.0476938
     ],
     [
      120.8066821,
      14.0476218
     ],
     [
      120.8067436,
      14.0476064
     ],
     [
      120.8067818,
      14.0476043
     ],
     [
      120.806972,
      14.0476429
     ],
     [
      120.8071758,
      14.0475909
     ],
     [
      120.8072939,
      14.047518
     ],
     [
      120.8072831,
      14.047466
     ],
     [
      120.8071222,
      14.0474244
     ],
     [
      120.8069291,
      14.0473515
     ],
     [
      120.806832,
      14.0472573
     ],
     [
      120.8067789,
      14.0472058
     ],
     [
      120.8067252,
      14.0469664
     ],
     [
      120.8066785,
      14.0468891
     ],
     [
      120.8066461,
      14.0467825
     ],
     [
      120.80665,
      14.0466563
     ],
     [
      120.806677,
      14.0465736
     ],
     [
      120.8066905,
      14.0464991
     ],
     [
      120.8067278,
      14.0464217
     ],
     [
      120.806695,
      14.0463798
     ],
     [
      120.8065484,
      14.0463765
     ],
     [
      120.8063455,
      14.0463915
     ],
     [
      120.8062746,
      14.0464148
     ],
     [
      120.8061845,
      14.0464283
     ],
     [
      120.806127,
      14.0462974
     ],
     [
      120.806074,
      14.046243
     ],
     [
      120.8060064,
      14.0461962
     ],
     [
      120.805966,
      14.0461383
     ],
     [
      120.805982,
      14.0460282
     ],
     [
      120.8060965,
      14.0459273
     ],
     [
      120.8062135,
      14.0458076
     ],
     [
      120.8065072,
      14.0456054
     ],
     [
      120.8066491,
      14.0455291
     ],
     [
      120.8067535,
      14.0454678
     ],
     [
      120.8068445,
      14.0453877
     ],
     [
      120.8070647,
      14.045257
     ],
     [
      120.807281,
      14.0452022
     ],
     [
      120.8074368,
      14.0452137
     ],
     [
      120.8076037,
      14.0451958
     ],
     [
      120.8077123,
      14.0451346
     ],
     [
      120.8078887,
      14.0450972
     ],
     [
      120.8080054,
      14.0450522
     ],
     [
      120.8081951,
      14.0450047
     ],
     [
      120.8080968,
      14.0449082
     ],
     [
      120.8080209,
      14.0448269
     ],
     [
      120.8080548,
      14.0447219
     ],
     [
      120.8080302,
      14.044625
     ],
     [
      120.8078947,
      14.0445309
     ],
     [
      120.8077981,
      14.0443956
     ],
     [
      120.8077341,
      14.0442768
     ],
     [
      120.807695,
      14.0442432
     ],
     [
      120.8076253,
      14.0441893
     ],
     [
      120.8076932,
      14.0441882
     ],
     [
      120.807742,
      14.0441738
     ],
     [
      120.8077805,
      14.0441919
     ],
     [
      120.807864,
      14.0441769
     ],
     [
      120.8079269,
      14.0441458
     ],
     [
      120.8078947,
      14.0440956
     ],
     [
      120.8078649,
      14.0440924
     ],
     [
      120.8078275,
      14.0440879
     ],
     [
      120.8078079,
      14.0440756
     ],
     [
      120.8078081,
      14.0440662
     ],
     [
      120.8078055,
      14.0440466
     ],
     [
      120.8077964,
      14.0440511
     ],
     [
      120.8077766,
      14.0440445
     ],
     [
      120.8077436,
      14.0440278
     ],
     [
      120.8077331,
      14.0440014
     ],
     [
      120.8077353,
      14.04395
     ],
     [
      120.8077144,
      14.0439489
     ],
     [
      120.8076884,
      14.0440229
     ],
     [
      120.8076807,
      14.0440194
     ],
     [
      120.8076902,
      14.0439877
     ],
     [
      120.8076902,
      14.0439771
     ],
     [
      120.8076742,
      14.043982
     ],
     [
      120.8076437,
      14.0439647
     ],
     [
      120.8076196,
      14.0439314
     ],
     [
      120.8074841,
      14.0438875
     ],
     [
      120.8074303,
      14.043859
     ],
     [
      120.8073514,
      14.0438367
     ],
     [
      120.8072911,
      14.0438004
     ],
     [
      120.8072704,
      14.0437579
     ],
     [
      120.8072562,
      14.0437056
     ],
     [
      120.8072325,
      14.0436842
     ],
     [
      120.8071759,
      14.0436397
     ],
     [
      120.8071627,
      14.0435936
     ],
     [
      120.807152,
      14.0435629
     ],
     [
      120.8071473,
      14.0435466
     ],
     [
      120.80709,
      14.0434901
     ],
     [
      120.8070274,
      14.0434464
     ],
     [
      120.8068218,
      14.0433027
     ],
     [
      120.8066394,
      14.0430842
     ],
     [
      120.8066122,
      14.0430229
     ],
     [
      120.8066058,
      14.042955
     ],
     [
      120.8065428,
      14.0428552
     ],
     [
      120.8064034,
      14.0426574
     ],
     [
      120.8062961,
      14.0425117
     ],
     [
      120.8062477,
      14.0423826
     ],
     [
      120.8062589,
      14.0422967
     ],
     [
      120.8062435,
      14.0422396
     ],
     [
      120.8062663,
      14.0421732
     ],
     [
      120.8062452,
      14.0420483
     ],
     [
      120.8061882,
      14.0419719
     ],
     [
      120.8061815,
      14.0419191
     ],
     [
      120.8061529,
      14.041921
     ],
     [
      120.8061222,
      14.0418999
     ],
     [
      120.8061109,
      14.0418657
     ],
     [
      120.8060393,
      14.0418017
     ],
     [
      120.8060206,
      14.0417702
     ],
     [
      120.8060108,
      14.0416953
     ],
     [
      120.8060472,
      14.0416291
     ],
     [
      120.8060431,
      14.0414977
     ],
     [
      120.8060261,
      14.041438
     ],
     [
      120.8060343,
      14.0414016
     ],
     [
      120.8060283,
      14.0413769
     ],
     [
      120.8060373,
      14.0413558
     ],
     [
      120.8060262,
      14.0413402
     ],
     [
      120.8059811,
      14.0413264
     ],
     [
      120.8059663,
      14.0412964
     ],
     [
      120.8059332,
      14.0412529
     ],
     [
      120.805901,
      14.0412107
     ],
     [
      120.8058347,
      14.0411401
     ],
     [
      120.8058052,
      14.0410548
     ],
     [
      120.8057647,
      14.0410063
     ],
     [
      120.8056754,
      14.0409463
     ],
     [
      120.8055802,
      14.040908
     ],
     [
      120.8054914,
      14.0408862
     ],
     [
      120.8053638,
      14.0408134
     ],
     [
      120.805315,
      14.0407784
     ],
     [
      120.8052148,
      14.040729
     ],
     [
      120.8051844,
      14.0407045
     ],
     [
      120.8051554,
      14.0407079
     ],
     [
      120.8051284,
      14.0406878
     ],
     [
      120.8050982,
      14.0406899
     ],
     [
      120.8051204,
      14.0406719
     ],
     [
      120.8051141,
      14.0406441
     ],
     [
      120.8051056,
      14.040658
     ],
     [
      120.8050929,
      14.0406601
     ],
     [
      120.8050664,
      14.0406774
     ],
     [
      120.8050645,
      14.0406538
     ],
     [
      120.8050727,
      14.0406327
     ],
     [
      120.8050693,
      14.0406232
     ],
     [
      120.8050627,
      14.0406221
     ],
     [
      120.8050599,
      14.0406246
     ],
     [
      120.8050473,
      14.0406196
     ],
     [
      120.8050279,
      14.040619
     ],
     [
      120.8050267,
      14.0406301
     ],
     [
      120.8049971,
      14.0406099
     ],
     [
      120.8049779,
      14.0406081
     ],
     [
      120.8049592,
      14.0406168
     ],
     [
      120.8049431,
      14.0406317
     ],
     [
      120.8049186,
      14.0406274
     ],
     [
      120.8049262,
      14.0406471
     ],
     [
      120.8046136,
      14.0407052
     ],
     [
      120.8045295,
      14.0407113
     ],
     [
      120.8045069,
      14.0407351
     ],
     [
      120.8044154,
      14.0407497
     ],
     [
      120.8043407,
      14.0407898
     ],
     [
      120.8043018,
      14.0407744
     ],
     [
      120.804172,
      14.0408045
     ],
     [
      120.8041368,
      14.0407933
     ],
     [
      120.8041143,
      14.0408129
     ],
     [
      120.8040761,
      14.0408267
     ],
     [
      120.8040543,
      14.0408486
     ],
     [
      120.8039891,
      14.0408602
     ],
     [
      120.8039636,
      14.0408732
     ],
     [
      120.8039786,
      14.0408958
     ],
     [
      120.8039644,
      14.0409023
     ],
     [
      120.8039159,
      14.0408904
     ],
     [
      120.8039317,
      14.0409464
     ],
     [
      120.8038988,
      14.0409587
     ],
     [
      120.8038859,
      14.040948
     ],
     [
      120.8038541,
      14.0409398
     ],
     [
      120.8037883,
      14.0409367
     ],
     [
      120.8037788,
      14.0409861
     ],
     [
      120.8038177,
      14.0410233
     ],
     [
      120.803679,
      14.041055
     ],
     [
      120.8035971,
      14.041028
     ],
     [
      120.8035806,
      14.0410597
     ],
     [
      120.8035633,
      14.0410491
     ],
     [
      120.8035428,
      14.0410107
     ],
     [
      120.8035033,
      14.0409806
     ],
     [
      120.8034532,
      14.0409675
     ],
     [
      120.8034408,
      14.0409526
     ],
     [
      120.803431,
      14.0409361
     ],
     [
      120.8033148,
      14.0408875
     ],
     [
      120.8032389,
      14.0408546
     ],
     [
      120.8032099,
      14.0408199
     ],
     [
      120.8031571,
      14.0407784
     ],
     [
      120.8031631,
      14.0407686
     ],
     [
      120.8031496,
      14.0407522
     ],
     [
      120.8031436,
      14.0407757
     ],
     [
      120.8031236,
      14.0407958
     ],
     [
      120.8030931,
      14.0407849
     ],
     [
      120.8030807,
      14.040771
     ],
     [
      120.8030681,
      14.0407627
     ],
     [
      120.8030563,
      14.0407401
     ],
     [
      120.8030499,
      14.0407473
     ],
     [
      120.8030404,
      14.0407638
     ],
     [
      120.8030192,
      14.0407614
     ],
     [
      120.802991,
      14.0407828
     ],
     [
      120.8029922,
      14.0407985
     ],
     [
      120.8029848,
      14.0408104
     ],
     [
      120.8029651,
      14.040814
     ],
     [
      120.802959,
      14.0407939
     ],
     [
      120.8028692,
      14.0408037
     ],
     [
      120.8028453,
      14.040779
     ],
     [
      120.8028155,
      14.0407828
     ],
     [
      120.8028167,
      14.0407641
     ],
     [
      120.8028325,
      14.0407464
     ],
     [
      120.8028745,
      14.0407383
     ],
     [
      120.8028845,
      14.04069
     ],
     [
      120.802875,
      14.0406477
     ],
     [
      120.8028672,
      14.0406366
     ],
     [
      120.8028639,
      14.0406386
     ],
     [
      120.8028568,
      14.0406398
     ],
     [
      120.8028575,
      14.0406369
     ],
     [
      120.802852,
      14.0406316
     ],
     [
      120.8028511,
      14.0406328
     ],
     [
      120.8028489,
      14.0406323
     ],
     [
      120.8028398,
      14.0406211
     ],
     [
      120.8028182,
      14.0406133
     ],
     [
      120.802783,
      14.040586
     ],
     [
      120.8027753,
      14.0405633
     ],
     [
      120.8027537,
      14.0405366
     ],
     [
      120.8027541,
      14.040522
     ],
     [
      120.8026971,
      14.0404778
     ],
     [
      120.8026814,
      14.040445
     ],
     [
      120.8026671,
      14.0404494
     ],
     [
      120.8026604,
      14.0404288
     ],
     [
      120.8026639,
      14.040417
     ],
     [
      120.8026724,
      14.0404147
     ],
     [
      120.8026742,
      14.0403946
     ],
     [
      120.8026809,
      14.0403751
     ],
     [
      120.8026674,
      14.0403785
     ],
     [
      120.8026679,
      14.0403864
     ],
     [
      120.8026655,
      14.0403957
     ],
     [
      120.8026343,
      14.0404122
     ],
     [
      120.8026392,
      14.0403952
     ],
     [
      120.8025996,
      14.0403677
     ],
     [
      120.8025833,
      14.0403796
     ],
     [
      120.8025766,
      14.0403578
     ],
     [
      120.8025741,
      14.0403315
     ],
     [
      120.8025717,
      14.0402997
     ],
     [
      120.8025438,
      14.0402992
     ],
     [
      120.8025258,
      14.040307
     ],
     [
      120.8025046,
      14.0403044
     ],
     [
      120.8024505,
      14.0402567
     ],
     [
      120.8024179,
      14.0402607
     ],
     [
      120.8024116,
      14.0402435
     ],
     [
      120.802443,
      14.0402357
     ],
     [
      120.8024847,
      14.0402052
     ],
     [
      120.802521,
      14.0401652
     ],
     [
      120.8025196,
      14.0401115
     ],
     [
      120.8025442,
      14.0400797
     ],
     [
      120.8024458,
      14.0399881
     ],
     [
      120.8024186,
      14.0399633
     ],
     [
      120.802399,
      14.0399198
     ],
     [
      120.8023802,
      14.0398931
     ],
     [
      120.8023472,
      14.0398861
     ]
    ]
   }
  }
 ]
}
